NAYIF-1 (EO-88)         
1 42017U 17008BX  23050.44491041  .00065564  00000+0  11900-2 0  9995
2 42017  97.2342 119.3558 0003264  82.8170 277.3452 15.49356851335082
ZHUHAI-1 02 (CAS-4B)    
1 42759U 17034B   23050.49493168  .00014300  00000+0  76713-3 0  9990
2 42759  43.0172  48.7562 0009804  50.0732  91.2587 15.14766884313779
ZHUHAI-1 01 (CAS-4A)    
1 42761U 17034D   23050.31562043  .00014257  00000+0  76239-3 0  9997
2 42761  43.0163  48.3387 0010117  53.2071  78.3477 15.14878262313759
MAX VALIER SAT          
1 42778U 17036P   23050.58006585  .00016327  00000+0  51203-3 0  9994
2 42778  97.1749  88.5520 0010209 156.3140 203.8574 15.33075972314679
RADFXSAT (FOX-1B)       
1 43017U 17073E   23050.61954166  .00006342  00000+0  45594-3 0  9995
2 43017  97.6486 299.6431 0241791  96.8301 266.0487 14.83958834283731
FOX-1D (AO-92)          
1 43137U 18004AC  23050.46895090  .00029268  00000+0  80325-3 0  9999
2 43137  97.3419 129.0810 0006606 198.8910 161.2091 15.37193643284172
DIWATA-2B               
1 43678U 18084H   23050.38108081  .00003360  00000+0  32995-3 0  9990
2 43678  98.0003 192.1601 0009083 185.1823 174.9217 14.92846681234681
ES'HAIL 2               
1 43700U 18090A   23050.39493888  .00000131  00000+0  00000+0 0  9997
2 43700   0.0150 110.4941 0002496 259.1912 307.3291  1.00272411 15506
FOX-1CLIFF (AO-95)      
1 43770U 18099N   23049.74997329  .00005597  00000+0  47499-3 0  9997
2 43770  97.5903 114.5093 0013563 164.3308 195.8337 14.98237590229863
ITASAT 1                
1 43786U 18099AE  23049.93476491  .00005668  00000+0  48187-3 0  9991
2 43786  97.5940 115.7142 0015120 154.2949 205.9028 14.98144745229936
JY1SAT (JO-97)          
1 43803U 18099AX  23050.44606907  .00006179  00000+0  51265-3 0  9995
2 43803  97.5871 116.0902 0015214 155.1264 205.0696 14.99056936230042
UWE-4                   
1 43880U 18111E   23050.45786723  .00006887  00000+0  55273-3 0  9990
2 43880  97.6521 317.5198 0013698 206.5199 153.5325 15.00314059226707
NEXUS (FO-99)           
1 43937U 19003F   23050.60970664  .00033628  00000+0  82744-3 0  9996
2 43937  97.1043  80.2141 0015575 353.0692   7.0337 15.40416019227876
JAISAT-1                
1 44419U 19038F   23050.48791182  .00023260  00000+0  96722-3 0  9994
2 44419  97.6648  28.9121 0016497   6.7003 353.4451 15.23665769200579
DUCHIFAT-3              
1 44854U 19089C   23050.48678542  .00013606  00000+0  97433-3 0  9990
2 44854  36.9631  73.5289 0006477  73.9423  84.3566 15.03806080175096
CAS-6 (TIANQIN 1)       
1 44881U 19093C   23050.50828431  .00002262  00000+0  28996-3 0  9996
2 44881  97.8713 130.9505 0016061 100.3132 259.9876 14.82167409171365
RS-44 & BREEZE-KM R/B   
1 44909U 19096E   23050.55958299  .00000035  00000+0  86877-4 0  9990
2 44909  82.5174  66.1028 0218586 101.9378 260.6319 12.79718472147116
ORBITAL FACTORY 2 (OF-2)
1 45113U 19071C   23050.61784112  .00239736  00000+0  12779-2 0  9999
2 45113  51.6265 264.9177 0003249 265.5836  94.4794 15.79170005171843
HUSKYSAT-1 (HO-107)     
1 45119U 19071J   23050.33798682  .00156216  00000+0  12462-2 0  9991
2 45119  51.6292 271.2894 0002443 301.1625  58.9132 15.70128988171726
BY70-2                  
1 45857U 20042B   23050.52785751  .00029854  00000+0  34894-2 0  9994
2 45857  97.9351 130.4513 0008957  36.6822 323.4940 14.85012968142048
SALSAT                  
1 46495U 20068K   23050.60150014  .00006130  00000+0  42115-3 0  9996
2 46495  97.7573 357.5775 0016659 153.9254 206.2815 15.06216026131360
BY70-3                  
1 46839U 20079N   23050.33239256  .00149143  00000+0  13842-2 0  9992
2 46839  97.1647 126.5945 0003053 183.6005 241.2742 15.66977046128488
RADFXSAT-2 (AO-109)     
1 47311U 21002C   23050.59499398  .00023434  00000+0  74587-3 0  9996
2 47311  60.6836 148.3574 0034214 113.1489 247.3214 15.32008361116224
UVSQ-SAT                
1 47438U 21006AB  23049.72170913  .00014689  00000+0  68152-3 0  9995
2 47438  97.4036 108.7746 0011708 134.8489 225.3699 15.20080217114620
DIY-1 (ARDUIQUBE)       
1 47963U 21022AH  23049.98188842  .00068015  00000+0  24169-2 0  9995
2 47963  97.5136 315.0490 0013187  18.5927 341.5791 15.28672472104364
XW-3 (CAS-9)            
1 50466U 21131B   23050.57531207  .00000759  00000+0  26179-3 0  9997
2 50466  98.5594 132.4801 0005579 128.5752 231.5935 14.38689357 60444
TEVEL-3                 
1 50988U 22002E   23050.69623500  .00028171  00000+0  13164-2 0  9992
2 50988  97.4504 118.8173 0007785 287.0551 193.7278 15.19730269 60887
TEVEL-8                 
1 50989U 22002F   23050.37087101  .00028072  00000+0  13148-2 0  9991
2 50989  97.4525 118.5421 0007580 285.6466 139.7797 15.19652750 60835
TEVEL-5                 
1 50998U 22002Q   23050.50051704  .00028973  00000+0  13294-2 0  9998
2 50998  97.4498 118.8871 0009069 282.0187 204.3128 15.20344812 60871
TEVEL-6                 
1 50999U 22002R   23050.63659191  .00029002  00000+0  13301-2 0  9990
2 50999  97.4492 119.0174 0009269 281.7973 235.6143 15.20358633 60898
TEVEL-1                 
1 51013U 22002AF  23050.29774625  .00028072  00000+0  13139-2 0  9995
2 51013  97.4498 118.3819 0007694 287.6115 137.5479 15.19675580 60829
TEVEL-7                 
1 51062U 22002CG  23050.37303565  .00027971  00000+0  13100-2 0  9994
2 51062  97.4520 118.5224 0007442 284.7536 141.9261 15.19657779 60836
TEVEL-4                 
1 51063U 22002CH  23050.30970076  .00027916  00000+0  13086-2 0  9997
2 51063  97.4518 118.4488 0007670 285.0143 139.7049 15.19625353 60827
TEVEL-2                 
1 51069U 22002CP  23050.69865909  .00028279  00000+0  13214-2 0  9999
2 51069  97.4500 118.7951 0007667 285.5699 198.1761 15.19730728 60888
GREENCUBE               
1 53106U 22080B   23034.19933790 -.00000003  00000+0  00000+0 0  9992
2 53106  70.1777   6.2677 0008922 216.5435 143.4616  6.42557193 13147
RS29S (SXC3-2110 CYCLO*)
1 53373U 22096D   23050.51338139  .00038164  00000+0  12751-2 0  9992
2 53373  97.4253 316.0731 0001790  90.7041  82.8734 15.30915249 29633
RS32S (SXC3-212 MONITO*)
1 53374U 22096E   23050.49934089  .00037648  00000+0  12647-2 0  9996
2 53374  97.4233 316.0570 0001889  92.7004  27.4974 15.30743189 29636
RS34S (SXC3-218 KUZBAS*)
1 53375U 22096F   23050.72995082  .00029859  00000+0  10317-2 0  9990
2 53375  97.4253 316.2005 0002457 120.6669 320.3981 15.29878983 29669
RS23S (SXC3-21 UTMN)    
1 53376U 22096G   23050.53152984  .00033843  00000+0  11597-2 0  9995
2 53376  97.4263 316.0280 0002598 109.6682  15.5733 15.30121881 29637
RS28S (SXC3-214 MIET-A*)
1 53377U 22096H   23050.53760594  .00032194  00000+0  11113-2 0  9990
2 53377  97.4251 316.0231 0002205 108.2607  15.6528 15.29895065 29631
RS26S (KAI-1)           
1 53378U 22096J   23050.36714999  .00026491  00000+0  93342-3 0  9998
2 53378  97.4258 315.7978 0002060 106.6111  32.5036 15.29264848 29602
RS19S (SXC3-219 ISOI)   
1 53381U 22096M   23050.39918714  .00032269  00000+0  10951-2 0  9990
2 53381  97.4254 316.0254 0006240 106.8347 319.4579 15.30430283 29621
RS21S (CUBESX-HSE-2)    
1 53383U 22096P   23050.33963183  .00033061  00000+0  11176-2 0  9997
2 53383  97.4257 315.9879 0006407 107.1192  32.3204 15.30552566 29618
RS30S (SXC3-217 SIREN)  
1 53384U 22096Q   23050.67047237  .00028246  00000+0  97076-3 0  9991
2 53384  97.4255 316.2745 0006065 104.7850 314.6554 15.30048843 29664
RS20S (GEOSCAN-EDELVEIS)
1 53385U 22096R   23050.32035696  .00042447  00000+0  13655-2 0  9999
2 53385  97.4243 316.1556 0006615 102.3201  40.4810 15.32092838 29659
RS33S (SXC3-215 VIZARD) 
1 53386U 22096S   23050.36230400  .00050357  00000+0  15488-2 0  9999
2 53386  97.4263 316.4051 0007176 104.8779  34.6041 15.33482536 29666
CAS-5A (FO-118)         
1 54684U 22167C   23050.39079089  .00019367  00000+0  11757-2 0  9998
2 54684  97.5420 189.1975 0014609  21.2432  58.4438 15.10461678 10877
XW-4 (CAS-10)           
1 54816U 21035C   23050.57624252  .00334550  00000+0  14862-2 0  9990
2 54816  41.4773 148.1802 0016435  18.2733 341.8705 15.82429392  9854
